OPTICUBE 04             
1 41851U 16067D   19160.85623441 -.00000244  00000-0 -16049-4 0  9995
2 41851  97.9154 258.3610 0009927  58.8267 301.3926 14.96801664140592
AEROCUBE 8D             
1 41852U 16067E   19160.85846141 -.00000032  00000-0  25203-5 0  9997
2 41852  97.9165 258.1883 0010662  59.0733 301.1535 14.96708021140579
AEROCUBE 8C             
1 41853U 16067F   19160.81432711  .00000688  00000-0  65566-4 0  9999
2 41853  97.9166 258.0803 0011282  61.8816 298.3544 14.96673556140564
PROMETHEUS 2-1          
1 41854U 16067G   19160.84978837 -.00000192  00000-0 -11409-4 0  9996
2 41854  97.9175 258.2470 0011458  59.2426 300.9922 14.96888171140572
PROMETHEUS 2-3          
1 41855U 16067H   19161.52062179 -.00000086  00000-0 -21627-5 0  9992
2 41855  97.9176 258.9414 0011517  57.5528 302.6805 14.96892007140672
INS-1B                  
1 41954U 17008G   19160.76264282  .00001185  00000-0  51925-4 0  9994
2 41954  97.4004 225.9220 0009555 166.7630 193.3860 15.23920845128442
BGUSAT                  
1 41999U 17008BD  19161.15279645  .00002023  00000-0  81274-4 0  9998
2 41999  97.4075 228.6370 0008207 177.1135 183.0152 15.26074274127992
DIDO-2                  
1 42000U 17008BE  19160.81714013  .00000876  00000-0  39221-4 0  9996
2 42000  97.4016 226.5211 0008312 184.2640 175.8528 15.23879540127856
PEASSS                  
1 42015U 17008BV  19161.18020658  .00000972  00000-0  42013-4 0  9998
2 42015  97.4023 227.8217 0006120 184.5731 175.5452 15.24837349128451
AL-FARABI 1             
1 42016U 17008BW  19160.85458653  .00001398  00000-0  58077-4 0  9992
2 42016  97.4038 228.0296 0005995 184.3116 175.8072 15.25464044128553
NAYIF-1 (EO-88)         
1 42017U 17008BX  19161.62942807  .00001271  00000-0  53014-4 0  9994
2 42017  97.4036 228.8064 0006043 181.6116 178.5104 15.25498559128697
ALTAIR PATHFINDER       
1 42711U 98067LS  19161.56544961  .00031510  00000-0  16710-3 0  9991
2 42711  51.6352 331.9121 0002032 126.9213 233.1975 15.80235846117809
ZA-AEROSAT              
1 42713U 98067LU  19151.03730059  .02928871  12128-4  58594-3 0  9990
2 42713  51.6172 356.2792 0012791 275.7272  84.2292 16.30383675116521
NJUST-1                 
1 42722U 98067MB  19161.66479338  .00161612  21957-4  33158-3 0  9999
2 42722  51.6340 311.0949 0003882 248.9246 201.1180 15.98983037117152
NSIGHT                  
1 42726U 98067MF  19160.93349268  .00024373  00000-0  19402-3 0  9990
2 42726  51.6373 353.5012 0005136 141.9703 218.1658 15.71043635116449
UCLSAT                  
1 42765U 17036A   19161.12568043  .00001038  00000-0  47437-4 0  9999
2 42765  97.3515 219.3189 0009756 258.0076 102.0067 15.22718062109161
LITUANICASAT-2          
1 42768U 17036D   19161.10476814  .00001837  00000-0  81528-4 0  9990
2 42768  97.3551 218.8953 0013500 247.4220 112.5588 15.22751404109006
AALTO-1                 
1 42775U 17036L   19161.11179960  .00000694  00000-0  34009-4 0  9993
2 42775  97.3500 218.0744 0012426 247.7156 112.2762 15.21319653108909
URSA MAIOR              
1 42776U 17036M   19160.74445815  .00000742  00000-0  36039-4 0  9996
2 42776  97.3511 217.8602 0012225 249.0264 110.9664 15.21449634108857
COMPASS 2               
1 42777U 17036N   19161.12360745  .00001457  00000-0  65148-4 0  9995
2 42777  97.3549 219.3727 0010914 248.3056 111.7019 15.22855922108965
DIAMOND RED             
1 42783U 17036U   19161.10216439  .00000906  00000-0  42449-4 0  9997
2 42783  97.3516 218.9052 0010452 259.3256 100.6803 15.22177078108948
PEGASUS                 
1 42784U 17036V   19161.14861979  .00000980  00000-0  45298-4 0  9994
2 42784  97.3520 219.1655 0010357 258.6162 101.3912 15.22466594108963
DIAMOND GREEN           
1 42785U 17036W   19160.83802804  .00000918  00000-0  42971-4 0  9998
2 42785  97.3519 218.6707 0010339 261.1541  98.8525 15.22177609108971
DIAMOND BLUE            
1 42786U 17036X   19160.83710379  .00000906  00000-0  42447-4 0  9999
2 42786  97.3518 218.6682 0010182 261.4222  98.5861 15.22174844108897
NUDTSAT                 
1 42787U 17036Y   19161.87440119  .00001346  00000-0  59433-4 0  9999
2 42787  97.3539 220.5371 0009723 258.5839 101.4305 15.23416555108951
SUCHAI                  
1 42788U 17036Z   19160.82950799  .00001164  00000-0  52592-4 0  9991
2 42788  97.3525 219.1457 0009914 258.9213 101.0909 15.22875735109009
SKCUBE                  
1 42789U 17036AA  19160.71327750  .00001091  00000-0  49654-4 0  9999
2 42789  97.3521 218.9768 0009781 259.5264 100.4871 15.22777663108903
VZLUSAT-1               
1 42790U 17036AB  19160.74459344  .00001483  00000-0  65201-4 0  9990
2 42790  97.3536 219.4350 0009336 258.1182 101.9008 15.23415428108934
ROBUSTA-1B              
1 42792U 17036AD  19160.64512078  .00001134  00000-0  51231-4 0  9996
2 42792  97.3521 219.0548 0009341 260.5330  99.4851 15.22941998108913
CICERO 6                
1 42793U 17036AE  19161.16263223  .00000730  00000-0  34402-4 0  9992
2 42793  97.3505 219.3559 0008611 260.4736  99.5527 15.22553515109050
D-SAT                   
1 42794U 17036AF  19161.08384020  .00000334  00000-0  34329-4 0  9991
2 42794  97.5400 206.1663 0126937 169.6671 190.7204 14.91089878107052
NIGERIAEDUSAT-1         
1 42824U 98067MY  19133.12526632  .12220275  12529-4  51637-3 0  9993
2 42824  51.6091  92.5367 0003545 299.4874 174.6355 16.43636834105973
CORVUS BC2              
1 42846U 17042X   19161.63110011  .00000031  00000-0  83826-5 0  9995
2 42846  97.5669  55.9548 0011247  82.8823 277.3675 14.91969835103815
CORVUS BC1              
1 42847U 17042Y   19160.78013053  .00000293  00000-0  34153-4 0  9997
2 42847  97.5671  55.2425 0010872  84.9153 275.3307 14.92069783103687
MIRATA                  
1 43015U 17073C   19160.75376787  .00000508  00000-0  45169-4 0  9990
2 43015  97.7199  82.3173 0255141 186.6028 173.1802 14.78957399 83971
MAKERSAT 0              
1 43016U 17073D   19160.76641531  .00000353  00000-0  33038-4 0  9994
2 43016  97.7231  82.5278 0257348 186.9006 172.8639 14.78718851 83968
ASTERIA                 
1 43020U 98067NH  19160.95164980  .00026734  00000-0  21947-3 0  9996
2 43020  51.6433   4.3217 0002415 100.3635 259.7635 15.70254111 88482
DELLINGR (RBLE)         
1 43021U 98067NJ  19161.20777684  .00008170  00000-0  94005-4 0  9997
2 43021  51.6394  14.9296 0002818  83.1145 277.0169 15.62991161 88360
AEROCUBE 7B (OCSD B)    
1 43042U 17071F   19160.88014188  .00003206  00000-0  85837-4 0  9990
2 43042  51.6383  95.9966 0005165 116.8589 243.2925 15.41133423 84725
AEROCUBE 7C (OCSD C)    
1 43043U 17071G   19160.88018167  .00003227  00000-0  86329-4 0  9992
2 43043  51.6384  96.0105 0005343 120.8765 239.2747 15.41137284 84695
CHEFSAT                 
1 43044U 17071H   19160.82065907  .00006439  00000-0  14923-3 0  9999
2 43044  51.6385  91.2251 0005229 117.3801 242.7718 15.43728300 84752
ASGARDIA 1              
1 43049U 17071N   19160.89766541  .00003160  00000-0  84365-4 0  9999
2 43049  51.6393  95.4052 0002756 130.4936 229.6290 15.41265441 84702
ISARA                   
1 43050U 17071P   19160.83351509  .00005308  00000-0  12666-3 0  9999
2 43050  51.6380  92.0209 0002668 123.7046 236.4195 15.43239835 84739
PROPCUBE 2 (FAUNA)      
1 43052U 17071R   19160.84012847  .00003119  00000-0  82684-4 0  9997
2 43052  51.6392  95.0389 0002720 125.9791 234.1447 15.41538389 84690
CORVUS BC3              
1 43118U 18004H   19161.12926040  .00000720  00000-0  33840-4 0  9993
2 43118  97.4869 228.5144 0008809 284.2855  75.7403 15.22827653 78177
MICROMAS-2A             
1 43131U 18004W   19160.74874918  .00001637  00000-0  70370-4 0  9998
2 43131  97.4896 228.8018 0007765 288.1434  71.8957 15.24082470 78152
CICERO 7                
1 43143U 18004AJ  19161.16686435  .00001256  00000-0  54492-4 0  9997
2 43143  97.4882 229.4336 0006031 299.3662  60.6972 15.24223021 78233
GOMX-4B                 
1 43196U 18015E   19160.90539129  .00000229  00000-0  12380-4 0  9994
2 43196  97.3875 288.5679 0019433 342.2850  17.7705 15.23932775 75006
GOMX-4A                 
1 43197U 18015F   19161.89363316  .00000307  00000-0  15557-4 0  9993
2 43197  97.3907 289.5683 0018518 340.8842 134.9410 15.24027744 75161
1KUNS-PF                
1 43466U 98067NP  19160.98024594  .00021306  00000-0  21002-3 0  9991
2 43466  51.6384  18.6358 0001554 112.9069 247.2091 15.65894666 61554
UBAKUSAT                
1 43467U 98067NQ  19161.03502777  .00012109  00000-0  13840-3 0  9995
2 43467  51.6384  22.0000 0002654  58.9637 301.1618 15.62624021 61525
BATSU-CS1 (IRAZU)       
1 43468U 98067NR  19160.85744303  .00029858  00000-0  26169-3 0  9995
2 43468  51.6373  16.2955 0001547 126.3397 233.7743 15.68599436161562
CUBERRT                 
1 43546U 98067NU  19160.88948371  .00034200  00000-0  35592-3 0  9993
2 43546  51.6389  24.0259 0005730 102.6279 257.5357 15.64226504 51612
TEMPEST-D               
1 43547U 98067NV  19161.00397235  .00009233  00000-0  12770-3 0  9997
2 43547  51.6393  30.0392 0006331  91.6143 268.5574 15.57901819 51229
RAINCUBE                
1 43548U 98067NW  19160.89416039  .00013808  00000-0  16548-3 0  9998
2 43548  51.6379  27.0436 0006311 104.1991 255.9704 15.61233000 51701
HALOSAT                 
1 43549U 98067NX  19160.83371706  .00014933  00000-0  17894-3 0  9999
2 43549  51.6386  27.3996 0006259 105.3905 254.7780 15.61158501 51256
ENDUROSAT ONE           
1 43551U 98067NZ  19160.86363539  .00016145  00000-0  18216-3 0  9996
2 43551  51.6385  25.3539 0006574 113.9119 246.2564 15.62653397 51699
EQUISAT                 
1 43552U 98067PA  19160.83703792  .00012842  00000-0  15287-3 0  9998
2 43552  51.6397  26.6938 0006893 112.0252 248.1475 15.61480844 51632
AEROCUBE 12A            
1 43556U 18046C   19160.82658025  .00001684  00000-0  72126-4 0  9996
2 43556  51.6429  99.1767 0008889  40.4978 319.6662 15.28686937 50201
